KUIPER-00560            
1 69623U 26140AH  26193.45939464  .00673403  00000+0  15700-1 0  9990
2 69623  51.8786 276.3557 0011577 263.1454  96.8217 15.39400467  5124
KUIPER-00561            
1 69624U 26140AJ  26192.74769253 -.00566727  00000+0 -15961-1 0  9990
2 69624  51.8826 279.8412 0009245 285.6749  74.3218 15.38107852  5014
KUIPER-00564            
1 69625U 26140AK  26193.52892313  .00014224  00000+0  39266-3 0  9996
2 69625  51.8805 276.0740 0009371 288.2570  71.7397 15.37294161  5137
KUIPER-00567            
1 69626U 26140AL  26193.45707103  .00013100  00000+0  35168-3 0  9990
2 69626  51.8803 276.3363 0012746 268.2511  91.7016 15.38204497  5126
KUIPER-00573            
1 69627U 26140AM  26193.60115950  .00012162  00000+0  33589-3 0  9993
2 69627  51.8785 275.8009 0009289 276.7362  83.2567 15.37431851  5147
CENTISPACE-1 GROUP 05 O*
1 69636U 26138J   26193.48690919 -.00000281  00000+0 -64616-4 0  9996
2 69636  55.1383 187.6938 0009461 339.1943  20.8645 14.15842596  3576
VICTUS HAZE PUMA        
1 69646U 26142A   26193.61345406  .00002139  00000+0  99368-4 0  9999
2 69646  97.4473  90.9469 0025050 275.5027  84.3351 15.20837043  3532
HOKUSHIN-1              
1 69648U 98067YH  26193.32898204  .00014101  00000+0  24652-3 0  9998
2 69648  51.6303 175.4569 0006140 319.8658  40.1877 15.50906444  3559
STARLINK-37656          
1 69649U 26143A   26193.56817022  .00031906  00000+0  58523-3 0  9996
2 69649  97.2870 237.4241 0001170 223.0357 137.0803 15.49224077  4471
STARLINK-37646          
1 69650U 26143B   26193.58335648  .00075934  00000+0  13865-2 0  9997
2 69650  97.2851 237.6165 0001811  87.0931  48.4185 15.49144804  4542
STARLINK-37749          
1 69651U 26143C   26193.58335648  .00057667  00000+0  10545-2 0  9993
2 69651  97.2912 237.5996 0000927 136.5172 320.6426 15.49181772  4544
STARLINK-37819          
1 69652U 26143D   26193.58335648  .00089306  00000+0  16266-2 0  9995
2 69652  97.2849 237.5748 0001322  75.9789 316.8046 15.49162978  4541
STARLINK-37729          
1 69653U 26143E   26193.59925813  .00267049  00000+0  12125-2 0  9998
2 69653  97.2829 237.8457 0001661 236.6445 123.4666 15.83188407  4500
STARLINK-37838          
1 69654U 26143F   26193.58335648  .00077950  00000+0  14221-2 0  9998
2 69654  97.2848 237.6425 0001441  58.3424 139.4490 15.49161308  4546
STARLINK-37884          
1 69655U 26143G   26193.58335648  .00077543  00000+0  14149-2 0  9996
2 69655  97.2853 237.5533 0001096 102.4131 243.7857 15.49160111  4541
STARLINK-37876          
1 69656U 26143H   26193.58335648  .00082210  00000+0  14989-2 0  9996
2 69656  97.2851 237.6424 0001255  97.8752  97.5053 15.49161719  4440
STARLINK-37784          
1 69657U 26143J   26193.58335648  .00090207  00000+0  16428-2 0  9992
2 69657  97.2846 237.5722 0001393  82.3467 305.4906 15.49163223  4440
STARLINK-37851          
1 69658U 26143K   26193.58335648  .00092704  00000+0  16871-2 0  9999
2 69658  97.2854 237.6381 0000796 106.4500  76.9214 15.49174128  4431
STARLINK-37229          
1 69659U 26143L   26193.58335648  .00078407  00000+0  14302-2 0  9991
2 69659  97.2850 237.5907 0001303 104.9009 329.8194 15.49164546  4488
STARLINK-37556          
1 69660U 26143M   26193.58335648  .00069336  00000+0  12664-2 0  9993
2 69660  97.2851 237.6176 0001250  98.5422  40.1181 15.49164264  4484
STARLINK-37867          
1 69661U 26143N   26193.58335648  .00059252  00000+0  10833-2 0  9996
2 69661  97.2910 237.6368 0001977  88.5370  93.3296 15.49177753  4441
STARLINK-37852          
1 69662U 26143P   26193.58335648  .00072958  00000+0  13321-2 0  9990
2 69662  97.2847 237.5606 0001268  99.0925 265.8257 15.49158996  4442
STARLINK-37554          
1 69663U 26143Q   26193.58335648  .00068452  00000+0  12506-2 0  9999
2 69663  97.2852 237.6129 0000823  76.5989  52.5875 15.49160170  4484
STARLINK-37830          
1 69664U 26143R   26193.58335648  .00079897  00000+0  14571-2 0  9999
2 69664  97.2848 237.5777 0001661 102.8512 302.0755 15.49163262  4434
STARLINK-37837          
1 69665U 26143S   26193.58335648 -.02089388  00000+0 -42602-1 0  9995
2 69665  97.2853 237.6466 0002136  72.5109 115.1937 15.49580734  4443
STARLINK-37943          
1 69666U 26143T   26193.58335648  .00081959  00000+0  14944-2 0  9997
2 69666  97.2850 237.5796 0001758  81.9701 325.9152 15.49162308  4440
STARLINK-37941          
1 69667U 26143U   26193.58335648  .00067964  00000+0  12417-2 0  9991
2 69667  97.2852 237.6079 0001084  56.0637  62.2054 15.49162154  4442
STARLINK-37930          
1 69668U 26143V   26193.58335648  .00069979  00000+0  12782-2 0  9995
2 69668  97.2851 237.6095 0000992  85.6834  35.5811 15.49161557  4433
STARLINK-37945          
1 69669U 26143W   26193.58335648  .00079831  00000+0  14559-2 0  9998
2 69669  97.2849 237.6408 0001324  84.1831 108.9604 15.49164012  4445
