OBJECT_NAME,OBJECT_ID,EPOCH,MEAN_MOTION,ECCENTRICITY,INCLINATION,RA_OF_ASC_NODE,ARG_OF_PERICENTER,MEAN_ANOMALY,EPHEMERIS_TYPE,CLASSIFICATION_TYPE,NORAD_CAT_ID,ELEMENT_SET_NO,REV_AT_EPOCH,BSTAR,MEAN_MOTION_DOT,MEAN_MOTION_DDOT
KUIPER-00560,2026-140AH,2026-07-12T11:01:31.696896,15.39400467,.00115771,51.8786,276.3557,263.1454,96.8217,0,U,69623,999,512,.15700396E-1,.673403E-2,0
KUIPER-00561,2026-140AJ,2026-07-11T17:56:40.634592,15.38107852,.00092458,51.8826,279.8412,285.6749,74.3218,0,U,69624,999,501,-.15960765E-1,-.566727E-2,0
KUIPER-00564,2026-140AK,2026-07-12T12:41:38.958432,15.37294161,.00093713,51.8805,276.0740,288.2570,71.7397,0,U,69625,999,513,.39265592E-3,.14224E-3,0
KUIPER-00567,2026-140AL,2026-07-12T10:58:10.936992,15.38204497,.00127464,51.8803,276.3363,268.2511,91.7016,0,U,69626,999,512,.35168328E-3,.131E-3,0
KUIPER-00573,2026-140AM,2026-07-12T14:25:40.180800,15.37431851,.00092899,51.8785,275.8009,276.7362,83.2567,0,U,69627,999,514,.33588912E-3,.12162E-3,0
CENTISPACE-1 GROUP 05 OBJECT J,2026-138J,2026-07-12T11:41:08.954016,14.15842596,.00094615,55.1383,187.6938,339.1943,20.8645,0,U,69636,999,357,-.64615997E-4,-.281E-5,0
VICTUS HAZE PUMA,2026-142A,2026-07-12T14:43:22.430784,15.20837043,.00250502,97.4473,90.9469,275.5027,84.3351,0,U,69646,999,353,.99367671E-4,.2139E-4,0
HOKUSHIN-1,1998-067YH,2026-07-12T07:53:44.048256,15.50906444,.00061407,51.6303,175.4569,319.8658,40.1877,0,U,69648,999,355,.24651945E-3,.14101E-3,0
STARLINK-37656,2026-143A,2026-07-12T13:38:09.907008,15.49224077,.00011703,97.2870,237.4241,223.0357,137.0803,0,U,69649,999,447,.58522687E-3,.31906E-3,0
STARLINK-37646,2026-143B,2026-07-12T14:00:01.999872,15.49144804,.00018119,97.2851,237.6165,87.0931,48.4185,0,U,69650,999,454,.13865307E-2,.75934E-3,0
STARLINK-37749,2026-143C,2026-07-12T14:00:01.999872,15.49181772,.00009273,97.2912,237.5996,136.5172,320.6426,0,U,69651,999,454,.10545032E-2,.57667E-3,0
STARLINK-37819,2026-143D,2026-07-12T14:00:01.999872,15.49162978,.0001322,97.2849,237.5748,75.9789,316.8046,0,U,69652,999,454,.16266306E-2,.89306E-3,0
STARLINK-37729,2026-143E,2026-07-12T14:22:55.902432,15.83188407,.00016611,97.2829,237.8457,236.6445,123.4666,0,U,69653,999,450,.12125246E-2,.267049E-2,0
STARLINK-37838,2026-143F,2026-07-12T14:00:01.999872,15.49161308,.00014412,97.2848,237.6425,58.3424,139.4490,0,U,69654,999,454,.14221349E-2,.7795E-3,0
STARLINK-37884,2026-143G,2026-07-12T14:00:01.999872,15.49160111,.0001096,97.2853,237.5533,102.4131,243.7857,0,U,69655,999,454,.14148665E-2,.77543E-3,0
STARLINK-37876,2026-143H,2026-07-12T14:00:01.999872,15.49161719,.00012555,97.2851,237.6424,97.8752,97.5053,0,U,69656,999,444,.14989422E-2,.8221E-3,0
STARLINK-37784,2026-143J,2026-07-12T14:00:01.999872,15.49163223,.00013936,97.2846,237.5722,82.3467,305.4906,0,U,69657,999,444,.16428263E-2,.90207E-3,0
STARLINK-37851,2026-143K,2026-07-12T14:00:01.999872,15.49174128,.00007966,97.2854,237.6381,106.4500,76.9214,0,U,69658,999,443,.16870871E-2,.92704E-3,0
STARLINK-37229,2026-143L,2026-07-12T14:00:01.999872,15.49164546,.00013036,97.2850,237.5907,104.9009,329.8194,0,U,69659,999,448,.14302234E-2,.78407E-3,0
STARLINK-37556,2026-143M,2026-07-12T14:00:01.999872,15.49164264,.00012509,97.2851,237.6176,98.5422,40.1181,0,U,69660,999,448,.12664362E-2,.69336E-3,0
STARLINK-37867,2026-143N,2026-07-12T14:00:01.999872,15.49177753,.00019771,97.2910,237.6368,88.5370,93.3296,0,U,69661,999,444,.10833193E-2,.59252E-3,0
STARLINK-37852,2026-143P,2026-07-12T14:00:01.999872,15.49158996,.00012687,97.2847,237.5606,99.0925,265.8257,0,U,69662,999,444,.13321223E-2,.72958E-3,0
STARLINK-37554,2026-143Q,2026-07-12T14:00:01.999872,15.49160170,.00008233,97.2852,237.6129,76.5989,52.5875,0,U,69663,999,448,.12506332E-2,.68452E-3,0
STARLINK-37830,2026-143R,2026-07-12T14:00:01.999872,15.49163262,.00016612,97.2848,237.5777,102.8512,302.0755,0,U,69664,999,443,.14571382E-2,.79897E-3,0
STARLINK-37837,2026-143S,2026-07-12T14:00:01.999872,15.49580734,.00021366,97.2853,237.6466,72.5109,115.1937,0,U,69665,999,444,-.42602428E-1,-.2089388E-1,0
STARLINK-37943,2026-143T,2026-07-12T14:00:01.999872,15.49162308,.00017588,97.2850,237.5796,81.9701,325.9152,0,U,69666,999,444,.14943618E-2,.81959E-3,0
STARLINK-37941,2026-143U,2026-07-12T14:00:01.999872,15.49162154,.00010843,97.2852,237.6079,56.0637,62.2054,0,U,69667,999,444,.12417229E-2,.67964E-3,0
STARLINK-37930,2026-143V,2026-07-12T14:00:01.999872,15.49161557,.00009924,97.2851,237.6095,85.6834,35.5811,0,U,69668,999,443,.12781899E-2,.69979E-3,0
STARLINK-37945,2026-143W,2026-07-12T14:00:01.999872,15.49164012,.00013244,97.2849,237.6408,84.1831,108.9604,0,U,69669,999,444,.14559304E-2,.79831E-3,0
